[{"OBJECT_NAME":"STARLINK-1669","OBJECT_ID":"2021-012E","EPOCH":"2026-03-09T22:00:01.999584","MEAN_MOTION":15.7520865,"ECCENTRICITY":0.00087944,"INCLINATION":53.0368,"RA_OF_ASC_NODE":350.7855,"ARG_OF_PERICENTER":92.6287,"MEAN_ANOMALY":29.9444,"EPHEMERIS_TYPE":0,"CLASSIFICATION_TYPE":"U","NORAD_CAT_ID":47624,"ELEMENT_SET_NO":999,"REV_AT_EPOCH":578,"BSTAR":0.0017201852,"MEAN_MOTION_DOT":0.00271838,"MEAN_MOTION_DDOT":0},{"OBJECT_NAME":"STARLINK-36578","OBJECT_ID":"2026-016L","EPOCH":"2026-03-09T17:14:14.869824","MEAN_MOTION":15.75202345,"ECCENTRICITY":0.00010498,"INCLINATION":97.2845,"RA_OF_ASC_NODE":129.1419,"ARG_OF_PERICENTER":65.2377,"MEAN_ANOMALY":294.8998,"EPHEMERIS_TYPE":0,"CLASSIFICATION_TYPE":"U","NORAD_CAT_ID":67571,"ELEMENT_SET_NO":999,"REV_AT_EPOCH":680,"BSTAR":0.0015219014,"MEAN_MOTION_DOT":0.00233308,"MEAN_MOTION_DDOT":0}]
